JINJUSat 1B
1 63210U 25052A   26192.15289869  .00010279  00000-0  31210-3 0  9993
2 63210  97.3980  88.9495 0003702  39.3093 320.8418 15.34268355 73774
NUSHSAT 1
1 63211U 25052B   26192.67745571  .00012769  00000-0  35541-3 0  9995
2 63211  97.3954  90.1288 0003558  47.4243 312.7301 15.36948419 73901
TEVEL2-4
1 63213U 25052D   26192.69245546  .00010971  00000-0  32035-3 0  9994
2 63213  97.3886  89.1357 0003837  58.4014 301.7604 15.35484284 73874
TEVEL2-5
1 63214U 25052E   26192.65062918  .00011136  00000-0  32708-3 0  9992
2 63214  97.3876  89.0343 0003877  60.2304 299.9325 15.35297561 73862
TEVEL2-6
1 63215U 25052F   26192.66351914  .00011163  00000-0  32824-3 0  9990
2 63215  97.3879  89.0323 0003848  63.3190 296.8447 15.35261289 73868
TEVEL2-1
1 63217U 25052H   26192.70130582  .00010384  00000-0  31099-3 0  9990
2 63217  97.3853  88.6646 0004497  67.0289 293.1429 15.34696214 73854
TEVEL2-3
1 63218U 25052J   26192.69500671  .00010066  00000-0  30100-3 0  9998
2 63218  97.3859  88.6837 0004262  68.4805 291.6893 15.34757646 73857
TEVEL2-2
1 63219U 25052K   26192.70145763  .00010151  00000-0  30398-3 0  9992
2 63219  97.3852  88.6678 0004523  67.8714 292.3009 15.34706297 73859
TEVEL2-9
1 63237U 25052AD  26192.64577432  .00009894  00000-0  31582-3 0  9995
2 63237  97.3918  87.9332 0007943  66.4852 293.7224 15.32659947 73770
TEVEL2-7
1 63238U 25052AE  26192.69152907  .00008894  00000-0  28697-3 0  9999
2 63238  97.3917  87.8840 0008006  66.3968 293.8114 15.32345939 73773
TEVEL2-8
1 63239U 25052AF  26192.70001789  .00009255  00000-0  29864-3 0  9992
2 63239  97.3915  87.8685 0008055  67.3029 292.9064 15.32332149 73775
SPIRONE
1 66657U 25274H   26192.77472337  .00000694  00000-0  71027-4 0  9990
2 66657  97.7475 121.7157 0010542 296.7998  63.2143 14.93646694 33891
K-HERO
1 66660U 25274L   26192.77251449  .00000684  00000-0  69374-4 0  9994
2 66660  97.7483 121.8928 0012438 301.0273  58.9725 14.94056355 33902
SNUGLITE-III DURI
1 66661U 25274M   26192.75972229  .00001151  00000-0  11301-3 0  9995
2 66661  97.7481 121.9007 0013106 301.7335  58.2607 14.94084846 33907
SAKHACUBE-CHOLBON
1 67290U 25313AU  26191.19005553  .00006495  00000-0  26060-3 0  9996
2 67290  97.3928 265.9422 0007595 272.5219  87.5150 15.25304127 29487
RS95S (QMR-KWT-2)
1 67291U 25313AV  26192.72863706  .00007541  00000-0  28781-3 0  9994
2 67291  97.3928 267.6920 0007327 261.4864  98.5545 15.26918964 29735
Ten-Koh2
1 68261U 25241B   26192.40901769  .00002476  00000-0  11407-3 0  9998
2 68261  51.6603 204.3342 0004605 217.1034 142.9626 15.24151171 18600
JACK-002
1 68417U 26067B   26192.46060938  .00003551  00000-0  16959-3 0  9990
2 68417  97.4575 150.7573 0002662 141.3260 218.8166 15.19686069 15634
DISCO 2
1 68431U 26067R   26190.11548802  .00005516  00000-0  26371-3 0  9999
2 68431  97.4606 148.4284 0000136  47.5002 312.6245 15.19411346 15278
HADES-SA (SpinnyONE)
1 68446U 26067AG  26192.32439863  .00010354  00000-0  48478-3 0  9994
2 68446  97.4404 150.2738 0006583  16.4667 343.6781 15.19898097 15595
PARUS-6U1
1 68456U 26067AS  26192.78163417  .00003199  00000-0  16169-3 0  9995
2 68456  97.4561 150.7726 0005147   0.9550 359.1693 15.17771836 15667
SAL-E
1 68458U 26067AU  26192.11327482  .00004518  00000-0  22479-3 0  9995
2 68458  97.4484 150.0370 0005835  12.7275 347.4106 15.18102051 15566
FSI-SAT 2
1 68792U 26088A   26192.38961474  .00001806  00000-0  12438-3 0  9994
2 68792  97.5087 341.0476 0014930  30.6530 329.5567 15.07022960 11932
OrigamiSat 2
1 68795U 26088D   26191.83514079  .00007342  00000-0  46382-3 0  9997
2 68795  97.5084 340.7177 0014434   1.4536 358.6733 15.09262036 11869
ARICA 2
1 68796U 26088E   26192.37256261  .00002656  00000-0  17340-3 0  9999
2 68796  97.5081 341.2130 0015379   0.8944 359.2309 15.08611373 11943
WASEDA-SAT-ZERO-II
1 68797U 26088F   26192.36422124  .00003961  00000-0  25454-3 0  9997
2 68797  97.5077 341.2221 0015092   0.1890 359.9342 15.08904577 11940
MANGARO-II-Piscus
1 68798U 26088G   26191.88897597  .00002467  00000-0  15968-3 0  9993
2 68798  97.5092 340.7926 0018878   4.6975 355.4427 15.08949838 11878
IO-86
1 40931U          25360.30710720  .00000000  00000-0  12800-3 0    00
2 40931   6.0006 332.5373 0012733 338.8432   8.1437 14.79075515    01
LILIUM-4
1 71922C 26067AC  26089.50133053 -.00014632  00000 0 -74472-3 0    04
2 71922  97.4497  49.1617 0004341   5.9603 355.7042 15.16896692    16
